NOAA 15                 
1 25338U 98030A   23005.54333446  .00000178  00000+0  92193-4 0  9996
2 25338  98.6247  37.2372 0011336  70.7527 289.4879 14.26217019282074
NOAA 18                 
1 28654U 05018A   23005.54352627  .00000210  00000+0  13700-3 0  9999
2 28654  98.9292  80.6136 0015150 119.1991 241.0699 14.12833220908513
NOAA 19                 
1 33591U 09005A   23005.56801706  .00000191  00000+0  12777-3 0  9995
2 33591  99.1244  48.7153 0013541 344.0555  16.0188 14.12661697716988
METOP-B                 
1 38771U 12049A   23005.51056444  .00000149  00000+0  88054-4 0  9993
2 38771  98.7040  67.4170 0001433 121.2873 351.1488 14.21492372534441
SARAL                   
1 39086U 13009A   23005.52379539  .00000137  00000+0  67199-4 0  9998
2 39086  98.5447 193.1924 0001850  65.0782 295.0594 14.32061566515409
METOP-C                 
1 43689U 18087A   23005.52513414  .00000142  00000+0  85065-4 0  9993
2 43689  98.7085  67.4858 0003592 157.2284 202.9053 14.21498171216014
ANGELS                  
1 44876U 19092D   23005.24711490  .00004468  00000+0  21545-3 0  9999
2 44876  97.4723 191.3074 0012368  22.3919 337.7853 15.19156273168869
GAZELLE                 
1 54023U 22127A   23005.27656223 -.00000043  00000+0  00000+0 0  9997
2 54023  98.3166   7.3036 0014229  31.4785 328.7321 14.41678583 12909
EOS-6 (OCEANSAT-3)      
1 54361U 22158A   23005.37264687  .00000395  00000+0  12047-3 0  9993
2 54361  98.3531 104.5749 0001453 104.2592 255.8776 14.46994436  5797
